[{"OBJECT_NAME":"STARLINK-35992","OBJECT_ID":"2025-281E","EPOCH":"2026-03-06T12:40:38.792064","MEAN_MOTION":15.2759781,"ECCENTRICITY":6.9e-5,"INCLINATION":42.999,"RA_OF_ASC_NODE":1.1922,"ARG_OF_PERICENTER":43.0691,"MEAN_ANOMALY":317.0214,"EPHEMERIS_TYPE":0,"CLASSIFICATION_TYPE":"U","NORAD_CAT_ID":66852,"ELEMENT_SET_NO":999,"REV_AT_EPOCH":1570,"BSTAR":0.0015523902,"MEAN_MOTION_DOT":0.00042727,"MEAN_MOTION_DDOT":0},{"OBJECT_NAME":"STARLINK-35986","OBJECT_ID":"2025-281F","EPOCH":"2026-03-06T04:44:18.902400","MEAN_MOTION":15.27594415,"ECCENTRICITY":0.00017076,"INCLINATION":42.9961,"RA_OF_ASC_NODE":3.0107,"ARG_OF_PERICENTER":49.1167,"MEAN_ANOMALY":310.9832,"EPHEMERIS_TYPE":0,"CLASSIFICATION_TYPE":"U","NORAD_CAT_ID":66853,"ELEMENT_SET_NO":999,"REV_AT_EPOCH":1565,"BSTAR":0.0010557347,"MEAN_MOTION_DOT":0.00028916,"MEAN_MOTION_DDOT":0},{"OBJECT_NAME":"STARLINK-36087","OBJECT_ID":"2025-281G","EPOCH":"2026-03-06T12:29:32.585856","MEAN_MOTION":15.27638273,"ECCENTRICITY":8.426e-5,"INCLINATION":43.0026,"RA_OF_ASC_NODE":1.1309,"ARG_OF_PERICENTER":43.8883,"MEAN_ANOMALY":316.2036,"EPHEMERIS_TYPE":0,"CLASSIFICATION_TYPE":"U","NORAD_CAT_ID":66854,"ELEMENT_SET_NO":999,"REV_AT_EPOCH":1570,"BSTAR":0.0017931446,"MEAN_MOTION_DOT":0.00049501,"MEAN_MOTION_DDOT":0},{"OBJECT_NAME":"STARLINK-36090","OBJECT_ID":"2025-281H","EPOCH":"2026-03-06T12:14:43.782144","MEAN_MOTION":15.27602968,"ECCENTRICITY":0.0001136,"INCLINATION":43.0002,"RA_OF_ASC_NODE":1.0476,"ARG_OF_PERICENTER":261.9586,"MEAN_ANOMALY":98.1137,"EPHEMERIS_TYPE":0,"CLASSIFICATION_TYPE":"U","NORAD_CAT_ID":66855,"ELEMENT_SET_NO":999,"REV_AT_EPOCH":1570,"BSTAR":0.0015621356,"MEAN_MOTION_DOT":0.00043006,"MEAN_MOTION_DDOT":0},{"OBJECT_NAME":"STARLINK-36072","OBJECT_ID":"2025-281J","EPOCH":"2026-03-06T12:03:50.843520","MEAN_MOTION":15.27595844,"ECCENTRICITY":7.731e-5,"INCLINATION":42.9982,"RA_OF_ASC_NODE":1.8584,"ARG_OF_PERICENTER":308.359,"MEAN_ANOMALY":51.7192,"EPHEMERIS_TYPE":0,"CLASSIFICATION_TYPE":"U","NORAD_CAT_ID":66856,"ELEMENT_SET_NO":999,"REV_AT_EPOCH":1569,"BSTAR":0.00085673282,"MEAN_MOTION_DOT":0.000234,"MEAN_MOTION_DDOT":0},{"OBJECT_NAME":"STARLINK-36083","OBJECT_ID":"2025-281K","EPOCH":"2026-03-06T04:01:58.772640","MEAN_MOTION":15.27585909,"ECCENTRICITY":0.0002083,"INCLINATION":43.0052,"RA_OF_ASC_NODE":3.6464,"ARG_OF_PERICENTER":238.757,"MEAN_ANOMALY":121.3078,"EPHEMERIS_TYPE":0,"CLASSIFICATION_TYPE":"U","NORAD_CAT_ID":66857,"ELEMENT_SET_NO":999,"REV_AT_EPOCH":1564,"BSTAR":0.0015240925,"MEAN_MOTION_DOT":0.00041925,"MEAN_MOTION_DDOT":0},{"OBJECT_NAME":"STARLINK-35118","OBJECT_ID":"2025-281L","EPOCH":"2026-03-06T13:06:32.823936","MEAN_MOTION":15.27582588,"ECCENTRICITY":0.00010955,"INCLINATION":43.0035,"RA_OF_ASC_NODE":1.3246,"ARG_OF_PERICENTER":295.4515,"MEAN_ANOMALY":64.6223,"EPHEMERIS_TYPE":0,"CLASSIFICATION_TYPE":"U","NORAD_CAT_ID":66858,"ELEMENT_SET_NO":999,"REV_AT_EPOCH":1570,"BSTAR":0.00098889945,"MEAN_MOTION_DOT":0.00027052,"MEAN_MOTION_DDOT":0},{"OBJECT_NAME":"STARLINK-35646","OBJECT_ID":"2025-281M","EPOCH":"2026-03-06T13:00:59.365728","MEAN_MOTION":15.27586704,"ECCENTRICITY":0.0001021,"INCLINATION":43.005,"RA_OF_ASC_NODE":1.2939,"ARG_OF_PERICENTER":284.8159,"MEAN_ANOMALY":75.2579,"EPHEMERIS_TYPE":0,"CLASSIFICATION_TYPE":"U","NORAD_CAT_ID":66859,"ELEMENT_SET_NO":999,"REV_AT_EPOCH":1570,"BSTAR":0.0012020103,"MEAN_MOTION_DOT":0.00032969,"MEAN_MOTION_DDOT":0},{"OBJECT_NAME":"STARLINK-35987","OBJECT_ID":"2025-281N","EPOCH":"2026-03-06T04:46:08.778144","MEAN_MOTION":15.27601972,"ECCENTRICITY":0.00011524,"INCLINATION":43.0034,"RA_OF_ASC_NODE":3.0124,"ARG_OF_PERICENTER":261.4145,"MEAN_ANOMALY":98.6576,"EPHEMERIS_TYPE":0,"CLASSIFICATION_TYPE":"U","NORAD_CAT_ID":66860,"ELEMENT_SET_NO":999,"REV_AT_EPOCH":1565,"BSTAR":0.0015528504,"MEAN_MOTION_DOT":0.00042745,"MEAN_MOTION_DDOT":0},{"OBJECT_NAME":"STARLINK-35991","OBJECT_ID":"2025-281P","EPOCH":"2026-03-06T12:23:59.228736","MEAN_MOTION":15.27575133,"ECCENTRICITY":0.00012802,"INCLINATION":43.0025,"RA_OF_ASC_NODE":1.0974,"ARG_OF_PERICENTER":282.2194,"MEAN_ANOMALY":77.8514,"EPHEMERIS_TYPE":0,"CLASSIFICATION_TYPE":"U","NORAD_CAT_ID":66861,"ELEMENT_SET_NO":999,"REV_AT_EPOCH":1570,"BSTAR":0.001263876,"MEAN_MOTION_DOT":0.00034675,"MEAN_MOTION_DDOT":0},{"OBJECT_NAME":"STARLINK-35974","OBJECT_ID":"2025-281Q","EPOCH":"2026-03-06T12:55:26.348160","MEAN_MOTION":15.27599921,"ECCENTRICITY":0.00013411,"INCLINATION":43.0041,"RA_OF_ASC_NODE":1.2641,"ARG_OF_PERICENTER":267.4905,"MEAN_ANOMALY":92.5793,"EPHEMERIS_TYPE":0,"CLASSIFICATION_TYPE":"U","NORAD_CAT_ID":66862,"ELEMENT_SET_NO":999,"REV_AT_EPOCH":1570,"BSTAR":0.00092390235,"MEAN_MOTION_DOT":0.00025264,"MEAN_MOTION_DDOT":0},{"OBJECT_NAME":"STARLINK-36134","OBJECT_ID":"2025-281R","EPOCH":"2026-03-06T04:18:23.345568","MEAN_MOTION":15.2759981,"ECCENTRICITY":0.00026949,"INCLINATION":43.0057,"RA_OF_ASC_NODE":2.8634,"ARG_OF_PERICENTER":257.2046,"MEAN_ANOMALY":102.8505,"EPHEMERIS_TYPE":0,"CLASSIFICATION_TYPE":"U","NORAD_CAT_ID":66863,"ELEMENT_SET_NO":999,"REV_AT_EPOCH":1565,"BSTAR":0.0010709213,"MEAN_MOTION_DOT":0.00029344,"MEAN_MOTION_DDOT":0},{"OBJECT_NAME":"STARLINK-36070","OBJECT_ID":"2025-281S","EPOCH":"2026-03-06T05:32:24.465408","MEAN_MOTION":15.2753052,"ECCENTRICITY":8.954e-5,"INCLINATION":43.0043,"RA_OF_ASC_NODE":3.2566,"ARG_OF_PERICENTER":294.0127,"MEAN_ANOMALY":66.0631,"EPHEMERIS_TYPE":0,"CLASSIFICATION_TYPE":"U","NORAD_CAT_ID":66864,"ELEMENT_SET_NO":999,"REV_AT_EPOCH":1565,"BSTAR":0.0014453702,"MEAN_MOTION_DOT":0.00039665,"MEAN_MOTION_DDOT":0},{"OBJECT_NAME":"STARLINK-36117","OBJECT_ID":"2025-281T","EPOCH":"2026-03-06T04:29:30.150528","MEAN_MOTION":15.27603782,"ECCENTRICITY":0.0001283,"INCLINATION":43.0015,"RA_OF_ASC_NODE":2.9225,"ARG_OF_PERICENTER":275.9986,"MEAN_ANOMALY":84.072,"EPHEMERIS_TYPE":0,"CLASSIFICATION_TYPE":"U","NORAD_CAT_ID":66865,"ELEMENT_SET_NO":999,"REV_AT_EPOCH":1565,"BSTAR":0.001704742,"MEAN_MOTION_DOT":0.00046982,"MEAN_MOTION_DDOT":0},{"OBJECT_NAME":"STARLINK-36126","OBJECT_ID":"2025-281U","EPOCH":"2026-03-06T12:05:41.563392","MEAN_MOTION":15.27606564,"ECCENTRICITY":0.00013553,"INCLINATION":43.0002,"RA_OF_ASC_NODE":1.8662,"ARG_OF_PERICENTER":257.7377,"MEAN_ANOMALY":102.3323,"EPHEMERIS_TYPE":0,"CLASSIFICATION_TYPE":"U","NORAD_CAT_ID":66866,"ELEMENT_SET_NO":999,"REV_AT_EPOCH":1568,"BSTAR":0.00097046431,"MEAN_MOTION_DOT":0.00026561,"MEAN_MOTION_DDOT":0},{"OBJECT_NAME":"STARLINK-36101","OBJECT_ID":"2025-281V","EPOCH":"2026-03-06T04:09:21.534624","MEAN_MOTION":15.27601183,"ECCENTRICITY":0.00019451,"INCLINATION":43.0022,"RA_OF_ASC_NODE":3.6818,"ARG_OF_PERICENTER":258.063,"MEAN_ANOMALY":102.0004,"EPHEMERIS_TYPE":0,"CLASSIFICATION_TYPE":"U","NORAD_CAT_ID":66867,"ELEMENT_SET_NO":999,"REV_AT_EPOCH":1563,"BSTAR":0.0013377194,"MEAN_MOTION_DOT":0.00036757,"MEAN_MOTION_DDOT":0}]
