STARLINK-35992          
1 66852U 25281E   26065.52822676  .00042727  00000+0  15524-2 0  9992
2 66852  42.9990   1.1922 0000690  43.0691 317.0214 15.27597810 15701
STARLINK-35986          
1 66853U 25281F   26065.19744100  .00028916  00000+0  10557-2 0  9996
2 66853  42.9961   3.0107 0001707  49.1167 310.9832 15.27594415 15651
STARLINK-36087          
1 66854U 25281G   26065.52051604  .00049501  00000+0  17931-2 0  9990
2 66854  43.0026   1.1309 0000842  43.8883 316.2036 15.27638273 15706
STARLINK-36090          
1 66855U 25281H   26065.51022896  .00043006  00000+0  15621-2 0  9999
2 66855  43.0002   1.0476 0001136 261.9586  98.1137 15.27602968 15705
STARLINK-36072          
1 66856U 25281J   26065.50267180  .00023400  00000+0  85673-3 0  9997
2 66856  42.9982   1.8584 0000773 308.3590  51.7192 15.27595844 15694
STARLINK-36083          
1 66857U 25281K   26065.16804135  .00041925  00000+0  15241-2 0  9992
2 66857  43.0052   3.6464 0002083 238.7570 121.3078 15.27585909 15645
STARLINK-35118          
1 66858U 25281L   26065.54621324  .00027052  00000+0  98890-3 0  9999
2 66858  43.0035   1.3246 0001095 295.4515  64.6223 15.27582588 15709
STARLINK-35646          
1 66859U 25281M   26065.54235377  .00032969  00000+0  12020-2 0  9992
2 66859  43.0050   1.2939 0001021 284.8159  75.2579 15.27586704 15706
STARLINK-35987          
1 66860U 25281N   26065.19871271  .00042745  00000+0  15529-2 0  9994
2 66860  43.0034   3.0124 0001152 261.4145  98.6576 15.27601972 15652
STARLINK-35991          
1 66861U 25281P   26065.51665774  .00034675  00000+0  12639-2 0  9992
2 66861  43.0025   1.0974 0001280 282.2194  77.8514 15.27575133 15707
STARLINK-35974          
1 66862U 25281Q   26065.53849940  .00025264  00000+0  92390-3 0  9991
2 66862  43.0041   1.2641 0001341 267.4905  92.5793 15.27599921 15706
STARLINK-36134          
1 66863U 25281R   26065.17943687  .00029344  00000+0  10709-2 0  9991
2 66863  43.0057   2.8634 0002694 257.2046 102.8505 15.27599810 15655
STARLINK-36070          
1 66864U 25281S   26065.23083872  .00039665  00000+0  14454-2 0  9998
2 66864  43.0043   3.2566 0000895 294.0127  66.0631 15.27530520 15654
STARLINK-36117          
1 66865U 25281T   26065.18715452  .00046982  00000+0  17047-2 0  9990
2 66865  43.0015   2.9225 0001283 275.9986  84.0720 15.27603782 15655
STARLINK-36126          
1 66866U 25281U   26065.50395328  .00026561  00000+0  97046-3 0  9992
2 66866  43.0002   1.8662 0001355 257.7377 102.3323 15.27606564 15684
STARLINK-36101          
1 66867U 25281V   26065.17316591  .00036757  00000+0  13377-2 0  9993
2 66867  43.0022   3.6818 0001945 258.0630 102.0004 15.27601183 15631
